OBJECT_NAME,OBJECT_ID,EPOCH,MEAN_MOTION,ECCENTRICITY,INCLINATION,RA_OF_ASC_NODE,ARG_OF_PERICENTER,MEAN_ANOMALY,EPHEMERIS_TYPE,CLASSIFICATION_TYPE,NORAD_CAT_ID,ELEMENT_SET_NO,REV_AT_EPOCH,BSTAR,MEAN_MOTION_DOT,MEAN_MOTION_DDOT
STARLINK-36382,2026-032L,2026-06-25T12:16:56.129664,15.33454345,.00016027,97.2863,4.1414,86.2754,273.8672,0,U,67807,999,2148,.71652758E-3,.23135E-3,0
STARLINK-36811,2026-032M,2026-06-25T11:53:26.672640,15.33452406,.00018437,97.2858,4.1660,94.4632,265.6822,0,U,67808,999,2148,.76333636E-3,.24655E-3,0
STARLINK-36795,2026-032N,2026-06-25T12:32:35.724480,15.33457001,.00016062,97.2861,4.1284,102.1731,257.9691,0,U,67809,999,2148,.81844386E-3,.2645E-3,0
STARLINK-36807,2026-032P,2026-06-25T11:57:21.570912,15.33448796,.00015057,97.2862,4.1621,88.8371,271.3044,0,U,67810,999,2148,.83415947E-3,.26954E-3,0
STARLINK-36733,2026-032Q,2026-06-25T11:37:46.975008,15.33457169,.00014089,97.2859,4.1805,90.7162,269.4242,0,U,67811,999,2148,.51428727E-3,.16571E-3,0
STARLINK-36377,2026-032R,2026-06-25T11:33:52.440480,15.33480604,.00019027,97.2869,4.1813,93.6588,266.4872,0,U,67812,999,2148,.10369591E-2,.33589E-3,0
STARLINK-36732,2026-032S,2026-06-25T11:41:41.955360,15.33456739,.00016221,97.2860,4.1749,87.2084,272.9345,0,U,67813,999,2148,.50420946E-3,.16244E-3,0
STARLINK-36767,2026-032T,2026-06-25T12:24:46.005696,15.33457052,.00014311,97.2863,4.1354,78.7238,281.4165,0,U,67814,999,2148,.77471413E-3,.25028E-3,0
STARLINK-36797,2026-032U,2026-06-25T12:05:12.864768,15.33420621,.00015901,97.2855,4.1511,86.3536,273.7889,0,U,67815,999,2148,.6519728E-3,.21016E-3,0
STARLINK-36343,2026-032V,2026-06-25T11:29:57.264864,15.33456936,.00018004,97.2860,4.1881,83.9478,276.1970,0,U,67816,999,2148,.78459751E-3,.2535E-3,0
STARLINK-36756,2026-032W,2026-06-25T11:45:35.930016,15.33449629,.0001697,97.2863,4.1733,93.1949,266.9488,0,U,67817,999,2147,.3313504E-4,.995E-5,0
STARLINK-36346,2026-032X,2026-06-25T11:26:01.602816,15.33520686,.00023275,97.2841,4.1907,97.2165,262.9342,0,U,67818,999,2148,.20904345E-2,.68189E-3,0
STARLINK-36788,2026-032Y,2026-06-25T12:09:06.485184,15.33451972,.00017487,97.2859,4.1513,91.0694,269.0749,0,U,67819,999,2148,.66645143E-3,.21507E-3,0
STARLINK-36353,2026-032Z,2026-06-25T12:01:16.472640,15.33452976,.0001729,97.2857,4.1586,99.7424,260.4014,0,U,67820,999,2148,.66694818E-3,.21524E-3,0
STARLINK-36644,2026-033A,2026-06-25T13:39:25.128576,15.27592360,.0001352,42.9992,17.7338,272.1723,87.8974,0,U,67821,999,2117,.10491981E-2,.28733E-3,0
STARLINK-36643,2026-033B,2026-06-24T22:34:51.784032,15.27602189,.00015018,43.0023,21.6322,275.7759,84.2922,0,U,67822,999,2107,.12775624E-2,.35085E-3,0
STARLINK-36646,2026-033C,2026-06-25T05:57:53.531136,15.27582948,.00011636,42.9996,19.6287,278.3171,81.7548,0,U,67823,999,2112,.81428186E-3,.22215E-3,0
STARLINK-36647,2026-033D,2026-06-25T13:33:52.214688,15.27598678,.00012117,43.0001,17.7097,289.9096,70.1625,0,U,67824,999,2117,.10463698E-2,.2866E-3,0
STARLINK-36648,2026-033E,2026-06-24T23:00:33.005376,15.27598330,.00016162,43.0055,20.8790,252.8626,107.2049,0,U,67825,999,2108,.68397461E-3,.18617E-3,0
STARLINK-35865,2026-033F,2026-06-24T23:37:33.667680,15.27606364,.0001972,43.0013,21.0836,277.5248,82.5380,0,U,67826,999,2108,.88439726E-3,.24174E-3,0
STARLINK-36289,2026-033G,2026-06-24T22:44:06.845280,15.27597916,.0001351,43.0029,21.6762,268.7152,91.3545,0,U,67827,999,2107,.63594085E-3,.17288E-3,0
STARLINK-36670,2026-033H,2026-06-25T06:29:20.724864,15.27591868,.00010241,43.0009,19.7981,272.4237,87.6497,0,U,67828,999,2112,.41826878E-3,.1127E-3,0
STARLINK-36144,2026-033J,2026-06-25T06:21:56.780928,15.27588342,.00007821,43.0030,19.7549,282.0140,78.0624,0,U,67829,999,2112,.1224462E-2,.33594E-3,0
STARLINK-36611,2026-033K,2026-06-24T22:57:03.575232,15.27601679,.00016889,43.0042,21.7387,261.6217,98.4443,0,U,67830,999,2107,.55718581E-3,.15112E-3,0
STARLINK-36661,2026-033L,2026-06-25T06:42:18.405216,15.27592533,.00006613,43.0015,19.8720,27.2234,332.8653,0,U,67831,999,2112,.94390823E-3,.25813E-3,0
STARLINK-36662,2026-033M,2026-06-25T12:17:44.562912,15.27628748,.00012213,43.0025,11.1084,272.8021,87.2691,0,U,67832,999,2124,.15219851E-2,.4192E-3,0
STARLINK-36659,2026-033N,2026-06-24T23:22:45.015168,15.27608388,.00020208,43.0003,20.9979,259.9485,100.1138,0,U,67833,999,2108,.10629967E-2,.29131E-3,0
STARLINK-36655,2026-033P,2026-06-24T07:20:50.667072,15.27576388,.00013167,43.0046,24.5911,265.7539,94.3162,0,U,67834,999,2098,.92709736E-3,.25334E-3,0
STARLINK-36657,2026-033Q,2026-06-25T13:19:03.481824,15.27624453,.00041031,43.0039,17.6172,287.7101,72.3302,0,U,67835,999,2117,.12440641E-2,.34183E-3,0
STARLINK-36650,2026-033R,2026-06-25T06:16:23.331360,15.27611183,.00009091,43.0005,19.7243,288.1791,71.8962,0,U,67836,999,2112,.46564403E-3,.12585E-3,0
STARLINK-36649,2026-033S,2026-06-24T22:40:24.656448,15.27600720,.0000752,43.0019,21.6477,266.1403,93.9363,0,U,67837,999,2107,.71018498E-3,.19344E-3,0
STARLINK-36654,2026-033T,2026-06-25T06:10:50.157408,15.27588884,.00008737,42.9994,19.6937,279.0282,81.0471,0,U,67838,999,2112,.60084568E-3,.16313E-3,0
STARLINK-36652,2026-033U,2026-06-25T13:56:04.098336,15.27603722,.00005309,42.9983,17.8211,288.2969,71.7824,0,U,67839,999,2117,.63770348E-3,.1734E-3,0
STARLINK-36651,2026-033V,2026-06-25T13:50:31.194816,15.27596852,.0000966,42.9990,17.7877,282.2595,77.8149,0,U,67840,999,2117,.58431593E-3,.1586E-3,0
STARLINK-36656,2026-033W,2026-06-24T23:33:51.424416,15.27598120,.00015636,43.0020,21.0610,264.4654,95.6019,0,U,67841,999,2108,.53051434E-3,.14373E-3,0
STARLINK-36653,2026-033X,2026-06-24T23:28:18.709248,15.27584702,.00014877,42.9999,21.0345,279.1253,80.9430,0,U,67842,999,2108,.2771983E-3,.7375E-4,0
STARLINK-36589,2026-033Y,2026-06-25T13:24:36.657504,15.27591754,.00044236,43.0015,17.6476,282.3943,77.6413,0,U,67843,999,2117,.77150177E-3,.2104E-3,0
STARLINK-36598,2026-033Z,2026-06-24T22:47:48.710976,15.27598140,.00014127,43.0039,21.6904,266.7949,93.2741,0,U,67844,999,2107,.55385078E-3,.15018E-3,0
STARLINK-36606,2026-033AA,2026-06-25T13:20:54.661344,15.27589179,.00045635,43.0038,17.6226,282.8292,77.2050,0,U,67845,999,2117,.7938487E-3,.21658E-3,0
STARLINK-36658,2026-033AB,2026-06-24T22:36:42.435648,15.27598457,.00012774,43.0033,21.6301,265.2648,94.8058,0,U,67846,999,2107,.57581805E-3,.15626E-3,0
STARLINK-36618,2026-033AC,2026-06-25T13:01:24.982464,15.27602165,.00004332,42.9971,3.3434,246.7583,113.3223,0,U,67847,999,2133,.12489473E-2,.34289E-3,0
STARLINK-36660,2026-033AD,2026-06-24T22:33:00.470592,15.27598775,.00011315,43.0008,21.6104,257.5271,102.5454,0,U,67848,999,2107,.57873121E-3,.15706E-3,0
STARLINK-36602,2026-033AE,2026-06-25T13:00:46.364256,15.27602855,.00006175,43.0005,18.3980,7.6659,352.4202,0,U,67849,999,2116,.92505334E-3,.25298E-3,0
STARLINK-36840,2026-034A,2026-06-25T10:00:48.972672,15.30218961,.00012482,53.1596,63.5698,96.2862,263.8281,0,U,67850,999,2053,.11070866E-2,.32593E-3,0
STARLINK-36348,2026-034B,2026-06-25T11:16:47.164512,15.30255633,.00013968,53.1598,63.9026,84.3239,275.7921,0,U,67851,999,2053,.13534346E-2,.40011E-3,0
STARLINK-36276,2026-034C,2026-06-25T00:13:51.551616,15.30191552,.00009696,53.1590,66.0124,108.3106,251.8001,0,U,67852,999,2046,-.55440518E-3,-.16738E-3,0
STARLINK-36785,2026-034D,2026-06-25T09:06:16.246080,15.30223858,.00013936,53.1571,64.0225,61.3970,298.7171,0,U,67853,999,2052,.13445894E-2,.39706E-3,0
STARLINK-36608,2026-034E,2026-06-24T23:22:11.038368,15.30246305,.0001028,53.1577,65.7546,89.0125,271.0994,0,U,67854,999,2045,.12864466E-2,.37991E-3,0
STARLINK-36838,2026-034F,2026-06-25T09:46:13.306080,15.31724241,.0001579,53.1604,63.4854,75.1203,284.9974,0,U,67855,999,2053,.92821411E-3,.28571E-3,0
STARLINK-36843,2026-034G,2026-06-25T09:52:56.489952,15.31729207,.0001191,53.1609,63.5279,96.6140,263.4997,0,U,67856,999,2053,.11567784E-2,.35736E-3,0
STARLINK-36828,2026-034H,2026-06-25T09:45:44.211744,15.31724542,.00013016,53.1605,63.4780,81.2200,278.8949,0,U,67857,999,2053,.59132623E-3,.18043E-3,0
STARLINK-36837,2026-034J,2026-06-24T23:56:34.730880,15.34417535,.0001342,53.1577,63.0872,99.4960,260.6194,0,U,67858,999,2050,.11020328E-2,.37063E-3,0
STARLINK-36393,2026-034K,2026-06-25T10:05:45.196800,15.31724095,.00011191,53.1595,62.8578,97.2624,262.8505,0,U,67859,999,2054,.79136327E-3,.2429E-3,0
STARLINK-35873,2026-034L,2026-06-25T09:45:47.049120,15.30210992,.00013528,53.1580,64.1972,90.8070,269.3086,0,U,67860,999,2055,.67508485E-3,.19695E-3,0
STARLINK-36325,2026-034M,2026-06-25T09:41:12.959808,15.30222162,.00010607,53.1594,64.1761,101.2146,258.8974,0,U,67861,999,2052,.11912003E-2,.35112E-3,0
STARLINK-36332,2026-034N,2026-06-25T09:36:40.020480,15.30214704,.0001591,53.1592,64.1548,75.4558,284.6619,0,U,67862,999,2052,.76552597E-3,.22392E-3,0
STARLINK-36835,2026-034P,2026-06-25T00:07:47.080992,15.30210393,.00011903,53.1591,65.9528,103.1035,257.0099,0,U,67863,999,2046,.68013956E-3,.19845E-3,0
STARLINK-36831,2026-034Q,2026-06-25T00:03:13.579200,15.30220914,.00010643,53.1584,65.9345,98.6064,261.5057,0,U,67864,999,2046,.12475214E-2,.36796E-3,0
STARLINK-36738,2026-034R,2026-06-25T09:18:24.372576,15.30223145,.00020167,53.1559,64.0744,250.3495,109.7288,0,U,67865,999,2052,.72874854E-3,.21302E-3,0
STARLINK-36780,2026-034S,2026-06-25T09:13:51.839328,15.30213983,.00009244,53.1556,64.0522,87.1588,272.9518,0,U,67866,999,2052,.10605634E-2,.31197E-3,0
STARLINK-36761,2026-034T,2026-06-25T09:09:18.315072,15.30240051,.00008335,53.1573,64.0318,86.2950,273.8146,0,U,67867,999,2052,.13809595E-2,.40817E-3,0
STARLINK-36762,2026-034U,2026-06-24T23:38:54.722976,15.30220408,.00011801,53.1577,65.8253,71.2496,288.8633,0,U,67868,999,2046,.77269886E-3,.2261E-3,0
STARLINK-36779,2026-034V,2026-06-25T09:25:24.130560,15.34415811,.00013947,53.1590,61.2674,91.6037,268.5125,0,U,67869,999,2055,.45083481E-3,.14894E-3,0
STARLINK-36770,2026-034W,2026-06-24T23:28:16.855968,15.30223291,.0001695,53.1584,65.7800,47.1098,313.0045,0,U,67870,999,2046,.98614367E-3,.28983E-3,0
